{"type":"FeatureCollection","features":[{"type":"Feature","id":"27","properties":{"name":"Minnesota"},"geometry":{"type":"Polygon","coordinates":[[[-97.22888319913199,49.00068691035909],[-96.93097179771797,48.999827850668495],[-95.97621959559595,48.999827850668495],[-95.1542712712127,48.998968790977905],[-95.1542712712127,49.384686592055914],[-95.05736033340332,49.35290138350383],[-94.95686010160101,49.37008257731576],[-94.85277057580575,49.32455241371413],[-94.82405622386223,49.29448532454324],[-94.77380610796108,49.12095526704266],[-94.74868105001049,49.09947877477774],[-94.68407375813757,48.883854792437916],[-94.70560952209522,48.82457967378673],[-94.69125234612346,48.7781904504945],[-94.6410022302223,48.74125088379883],[-94.53691270442704,48.70259319772197],[-94.45076964859648,48.692284481434804],[-94.42205529665296,48.70860661555615],[-94.2641263609636,48.699156958959584],[-94.22464412704127,48.64933149690496],[-94.00569719347193,48.64331807907078],[-93.83341108181081,48.62527782556825],[-93.80469672986729,48.568579885988854],[-93.81546461184611,48.526485961149604],[-93.79392884788848,48.51617724486244],[-93.643178500185,48.517895364243635],[-93.6252320302203,48.53078125960259],[-93.54626756237562,48.529063140221396],[-93.463713800538,48.54624433403333],[-93.46730309453095,48.587479199181985],[-93.34885639276392,48.62699594494944],[-93.20887392703926,48.64245901938018],[-93.17657028110281,48.62355970618705],[-92.98633769947699,48.62355970618705],[-92.72790853198532,48.53937185650856],[-92.63458688816888,48.54280809527094],[-92.63099759417594,48.5007141704317],[-92.6991941800418,48.49470075259752],[-92.71355135601355,48.46291554404543],[-92.65612265212651,48.43628469363693],[-92.50896159841598,48.44745246961469],[-92.45512218852188,48.40106324632246],[-92.47665795247953,48.371855216842164],[-92.45512218852188,48.329761292002914],[-92.36897913269132,48.22066071129711],[-92.27924678286783,48.24385532294322],[-92.30796113481135,48.31601633695336],[-92.26130031290313,48.35467402303022],[-92.20746090300902,48.345224366433655],[-92.05671055530554,48.35896932148321],[-91.99928185141852,48.321170695096946],[-92.00646043940439,48.26533181520814],[-91.9454424415244,48.23011036789367],[-91.89519232562326,48.23784190510904],[-91.86288867968679,48.206915756247554],[-91.71572762597626,48.19918421903218],[-91.69778115601156,48.14162721976219],[-91.71213833198331,48.11499636935368],[-91.64035245212452,48.09695611585115],[-91.5577986902869,48.10812389182891],[-91.56856657226572,48.043694415034146],[-91.48960210442104,48.067748086370855],[-91.43935198851987,48.048848773177724],[-91.37115540265403,48.06946620575205],[-91.24911940689407,48.084070220492194],[-91.08401188321884,48.18114396552965],[-91.02299388533885,48.19231174150741],[-90.97633306343063,48.21980165160651],[-90.88660071360714,48.245573442324414],[-90.83635059770597,48.23440566634665],[-90.83635059770597,48.17684866707666],[-90.775332599826,48.16224465233652],[-90.79686836378363,48.139909100381],[-90.76097542385423,48.098674235232345],[-90.70354671996719,48.09609705616055],[-90.5779214302143,48.121009787187866],[-90.55638566625666,48.09609705616055],[-90.46665331643317,48.10898295151951],[-90.37333167261673,48.09351987708877],[-90.30513508675087,48.10468765306652],[-90.13284897508974,48.1115601305913],[-90.02875944929448,48.087506459254584],[-89.99645580335803,48.03080851967519],[-89.87441980759807,47.98527835607355],[-89.82058039770398,48.01534544524444],[-89.74879451784517,48.02307698245982],[-89.70213369593695,48.00589578864788],[-89.61957993409933,48.01105014679146],[-89.58009770017699,47.99558707236071],[-89.4903653503535,48.014486385553845],[-89.58727628816288,47.96637904288042],[-89.62316922809228,47.98356023669236],[-89.63752640406403,47.95435220721206],[-89.69854440194402,47.94146631185311],[-89.79186604576046,47.89164084979849],[-89.92466992349924,47.8624328203182],[-89.97492003940039,47.83064761176611],[-90.16156332703326,47.79284898537985],[-90.33384943869439,47.74645976208761],[-90.38768884858848,47.74130540394403],[-90.53843919629196,47.70264771786717],[-90.55279637226371,47.690620882198814],[-90.73585036590366,47.624473286022855],[-90.86865424364244,47.556607570465694],[-91.12708341113411,47.39939964708646],[-91.18810140901408,47.340124528435275],[-91.38551257862578,47.18721190350903],[-91.47883422244222,47.12535960578605],[-91.57215586625865,47.090138158471575],[-91.66547751007509,47.01454090569905],[-91.70495974399743,47.005091249102485],[-91.80545997579975,46.93378929478294],[-91.84135291572915,46.92519869787697],[-92.06029984929849,46.81008469933698],[-92.09260349523495,46.788608207072066],[-92.06388914329143,46.74565522254222],[-92.01363902739027,46.70613847677476],[-92.08901420124201,46.74909146130461],[-92.13926431714317,46.739641804708036],[-92.15003219912198,46.71472907368073],[-92.20746090300902,46.70270223801237],[-92.17515725707257,46.68638010389103],[-92.21463949099491,46.64944053719537],[-92.29360395883958,46.663185492244914],[-92.29360395883958,46.07472960418603],[-92.32949689876898,46.066139007280064],[-92.35103266272662,46.015454485534846],[-92.43717571855719,46.02146790336903],[-92.47306865848658,45.973360560695596],[-92.52331877438775,45.98452833667336],[-92.55203312633125,45.95188406843068],[-92.64176547615476,45.93212569554695],[-92.71355135601355,45.891749890088896],[-92.78533723587235,45.76460905588055],[-92.86430170371703,45.722515131041305],[-92.88942676166761,45.62458232631325],[-92.88583746767468,45.57905216271162],[-92.81046229382294,45.561011909209086],[-92.77456935389354,45.568743446424456],[-92.72431923799238,45.54125353632536],[-92.72790853198532,45.514622685916855],[-92.64535477014769,45.441602612216116],[-92.64894406414064,45.39864962768627],[-92.70278347403473,45.35827382222821],[-92.6991941800418,45.333361091200906],[-92.76021217792177,45.291267166361656],[-92.7530335899359,45.21309273451734],[-92.76739076590765,45.18560282441824],[-92.74585500195002,45.107428392573915],[-92.80328370583706,45.057602930519295],[-92.76380147191472,45.028394901039],[-92.7709800599006,44.972556021150204],[-92.74944429594295,44.937334573835734],[-92.77456935389354,44.90125406683066],[-92.76380147191472,44.836824590035896],[-92.80687299982999,44.768099814788144],[-92.7889265298653,44.737173665926655],[-92.73149782597825,44.713979054280536],[-92.62022971219712,44.6392408611986],[-92.62381900619006,44.61862342862428],[-92.5735688902889,44.60487847357473],[-92.54126524435245,44.56707984718847],[-92.36180054470545,44.55934830997309],[-92.31872901679016,44.544744295232945],[-92.28283607686076,44.47773763936639],[-92.23258596095961,44.445093371123704],[-92.05312126131261,44.40128132690326],[-91.97415679346793,44.367777998969984],[-91.92390667756678,44.333415611346105],[-91.92390667756678,44.28788544774447],[-91.89519232562326,44.274999552385516],[-91.87724585565856,44.202838538375374],[-91.81622785777857,44.164180852298514],[-91.7193169199692,44.128959404984045],[-91.70854903799038,44.10404667395673],[-91.57933445424455,44.02673130180301],[-91.43935198851987,44.0018185707757],[-91.38551257862578,43.95457028779287],[-91.27783375883759,43.83773816987169],[-91.24553011290112,43.77330869307692],[-91.27424446484464,43.67623494803947],[-91.26706587685877,43.61524171000709],[-91.23117293692937,43.58345650145501],[-91.24553011290112,43.54565787506874],[-91.2168157609576,43.50012771146711],[-91.94903173551735,43.50012771146711],[-92.7530335899359,43.50012771146711],[-93.16939169311692,43.49926865177651],[-93.96980425354253,43.49926865177651],[-94.61587717227172,43.50012771146711],[-95.73932619206191,43.50012771146711],[-96.45359569665696,43.50012771146711],[-96.45359569665696,44.54388523554235],[-96.45000640266402,44.63065026429263],[-96.45359569665696,44.8900862908529],[-96.45359569665696,45.30157588264882],[-96.48948863658636,45.357414762537616],[-96.6187032203322,45.408099284282834],[-96.68331051220511,45.411535523045224],[-96.73356062810628,45.45878380602805],[-96.76586427404274,45.52149516344163],[-96.85918591785918,45.60568301312012],[-96.84123944789448,45.64519975888758],[-96.75150709807097,45.69846145970459],[-96.6725426302263,45.73196478763787],[-96.62947110231102,45.78608554814547],[-96.57922098640987,45.82560229391293],[-96.5648638104381,45.935561934309334],[-96.57922098640987,46.02662226151261],[-96.55768522245222,46.058407470064694],[-96.59716745637456,46.219910691896914],[-96.6007567503675,46.330729391983915],[-96.64741757227571,46.35392400363003],[-96.71920345213452,46.43811185330853],[-96.73714992209922,46.48020577814778],[-96.75150709807097,46.582433881328804],[-96.79098933199332,46.63140028369283],[-96.79816791997919,46.66490361162611],[-96.7802214500145,46.7233196705867],[-96.80175721397214,46.81953435593355],[-96.78381074400744,46.8341383706737],[-96.7622749800498,46.93464835447354],[-96.78381074400744,46.92519869787697],[-96.82329297792977,46.96901074209741],[-96.81970368393684,47.115909949189486],[-96.83765015390154,47.1949434407244],[-96.84482874188741,47.29287624545245],[-96.83406085990859,47.335829229982295],[-96.85918591785918,47.424312378113775],[-96.85559662386623,47.6107283309733],[-96.87354309383093,47.613305510045095],[-96.89866815178151,47.68976182250822],[-96.93815038570385,47.76879531404313],[-96.96686473764737,47.78339932878328],[-97.00634697156971,47.87016435753357],[-97.01711485354853,47.91998981958819],[-97.05659708747088,47.94919784906848],[-97.07454355743558,48.05314407163071],[-97.1319722613226,48.139909100381],[-97.14274014330142,48.23440566634665],[-97.11761508535085,48.27993582994829],[-97.14632943729437,48.359828381173806],[-97.13556155531555,48.40449948508484],[-97.13915084930849,48.49641887197871],[-97.16427590725907,48.54710339372393],[-97.13915084930849,48.61239193020929],[-97.10684720337203,48.63300936278362],[-97.0960793213932,48.68627106360063],[-97.14991873128731,48.75499583884838],[-97.17863308323082,48.861519240482394],[-97.20016884718846,48.88213667305672],[-97.23965108111081,48.96632452273522],[-97.22888319913199,49.00068691035909]]]}},{"type":"Feature","id":"19","properties":{"name":"Iowa"},"geometry":{"type":"Polygon","coordinates":[[[-96.45359569665696,43.50012771146711],[-95.73932619206191,43.50012771146711],[-94.61587717227172,43.50012771146711],[-93.96980425354253,43.49926865177651],[-93.16939169311692,43.49926865177651],[-92.7530335899359,43.50012771146711],[-91.94903173551735,43.50012771146711],[-91.2168157609576,43.50012771146711],[-91.2347622309223,43.455456607556066],[-91.1988692909929,43.412503623026225],[-91.20245858498585,43.34893320592205],[-91.10554764717646,43.31371175860758],[-91.05888682526825,43.24842322212221],[-91.12349411714116,43.1968796406864],[-91.14502988109881,43.15220853677536],[-91.17733352703527,43.131591104201036],[-91.17374423304233,43.03881265761657],[-91.14502988109881,42.96321540484404],[-91.14502988109881,42.904799345883454],[-91.10195835318353,42.88332285361853],[-91.05529753127531,42.73814176590765],[-90.93685082950829,42.68316194570945],[-90.76815401184011,42.65137673715736],[-90.70713601396014,42.63419554334543],[-90.64252872208722,42.54055803707036],[-90.64252872208722,42.508772828518275],[-90.64252872208722,42.46839702306023],[-90.56356425424254,42.438329933889335],[-90.55638566625666,42.415994381933814],[-90.47742119841197,42.38420917338173],[-90.41999249452495,42.33008841287412],[-90.43076037650376,42.27854483143831],[-90.37692096660966,42.21497441433414],[-90.20822414894148,42.15226305692056],[-90.16156332703326,42.11704160960609],[-90.16515262102621,42.04058529714296],[-90.14002756307562,42.00880008859088],[-90.16515262102621,41.95639744746447],[-90.15438473904739,41.90657198540985],[-90.18309909099091,41.84471968768687],[-90.17950979699796,41.8094982403724],[-90.28001002880029,41.76740431553315],[-90.31231367473674,41.742491584505835],[-90.31231367473674,41.6978204805948],[-90.34461732067321,41.64713595884958],[-90.34102802668026,41.59043801927019],[-90.3984567305673,41.572397765767654],[-90.46306402244022,41.523431363403624],[-90.55638566625666,41.52429042309422],[-90.59227860618606,41.51312264711646],[-90.6497073100731,41.465015304443035],[-90.73585036590366,41.45041128970289],[-90.8471184796848,41.45556564784647],[-90.92967224152241,41.4212032602226],[-90.97633306343063,41.434089155581546],[-91.04452964929649,41.41604890207901],[-91.06606541325412,41.368800619096184],[-91.07324400124001,41.30523020199201],[-91.11272623516234,41.23908260581605],[-91.04094035530355,41.16606253211531],[-90.99427953339533,41.160908173971734],[-90.94761871148711,41.09647869717696],[-90.94402941749416,41.01229084749847],[-90.96556518145181,40.9212305202952],[-91.00504741537415,40.90490838617386],[-91.05529753127531,40.84821044659446],[-91.09119047120471,40.825015834948346],[-91.09477976519764,40.76745883567835],[-91.11631552915529,40.725364910839104],[-91.11990482314823,40.67296226971269],[-91.18451211502115,40.637740822398214],[-91.24911940689407,40.63859988208881],[-91.3603875206752,40.60166031539315],[-91.40704834258342,40.54238519674196],[-91.36756610866108,40.51231810757107],[-91.38192328463285,40.43500273541735],[-91.37474469664696,40.3920497508875],[-91.41781622456224,40.37830479583795],[-91.4860128104281,40.38431821367213],[-91.52549504435044,40.41094906408063],[-91.52908433834338,40.45905640675406],[-91.56497727827278,40.46077452613525],[-91.62240598215982,40.509740928499276],[-91.61881668816687,40.540667077360766],[-91.68342398003979,40.552693913029124],[-91.68701327403274,40.58104288281882],[-91.73008480194801,40.613687151061505],[-92.09260349523495,40.60166031539315],[-92.63817618216181,40.590492539415386],[-93.34526709877099,40.58018382312822],[-93.56780332633326,40.58018382312822],[-94.03441154541545,40.57331134560345],[-94.59434140831408,40.57073416653166],[-95.16503915319153,40.57760664405643],[-95.7644512500125,40.58533818127181],[-95.75009407404073,40.60939185260852],[-95.78598701397013,40.65749919528194],[-95.83264783587835,40.671244150331496],[-95.88648724577246,40.72106961238612],[-95.87930865778657,40.752854820938204],[-95.83264783587835,40.782921910109096],[-95.84700501185011,40.85422386442864],[-95.81111207192072,40.89803590864908],[-95.8362371298713,40.9212305202952],[-95.82905854188542,40.97792845987459],[-95.86136218782187,40.995109653686534],[-95.85777289382894,41.0311901606916],[-95.88289795177951,41.056961951409505],[-95.86495148181481,41.080156563055624],[-95.88289795177951,41.160049114281136],[-95.83982642386424,41.17465312902128],[-95.92596947969479,41.195270561595606],[-95.91161230372303,41.22705577014769],[-95.92955877368773,41.2811765306553],[-95.88289795177951,41.31639797796977],[-95.9546838316383,41.33959258961589],[-95.92955877368773,41.3645053206432],[-95.93314806768068,41.46415624475244],[-96.00493394753947,41.47274684165841],[-95.9977553595536,41.53889443783437],[-96.03005900549005,41.53975349752497],[-96.03723759347594,41.50796828897288],[-96.09107700337003,41.5320219603096],[-96.08030912139121,41.580129302983025],[-96.11979135531355,41.6136326309163],[-96.09466629736296,41.64713595884958],[-96.12338064930648,41.68235740616405],[-96.08389841538416,41.6978204805948],[-96.10543417934178,41.74420970388703],[-96.07671982739826,41.76139089769897],[-96.06595194541946,41.80090764346643],[-96.10902347333473,41.82066601635016],[-96.11261276732768,41.85331028459284],[-96.16286288322883,41.90571292571925],[-96.14132711927118,41.915162582315816],[-96.13055923729237,41.97186052189521],[-96.1879879411794,41.977014880038794],[-96.18439864718647,42.0027866707567],[-96.23823805708057,42.012236327353264],[-96.22029158711587,42.02598128240282],[-96.27413099700996,42.04745777466774],[-96.27054170301703,42.118759728987285],[-96.3495061708617,42.16686707166071],[-96.36027405284052,42.20810193680936],[-96.32438111291113,42.22957842907429],[-96.37463122881228,42.31806157720577],[-96.41411346273462,42.342974308233075],[-96.41411346273462,42.40826284471844],[-96.38180981679817,42.446061471104706],[-96.39616699276992,42.48386009749097],[-96.44641710867108,42.49073257501574],[-96.4930779305793,42.51736342542425],[-96.47872075460754,42.55602111150111],[-96.51461369453695,42.63075930458304],[-96.57563169241692,42.68230288601885],[-96.62947110231102,42.70549749766497],[-96.63306039630396,42.77078603415033],[-96.59357816238162,42.793121586105855],[-96.5828102804028,42.83779269001689],[-96.54332804648045,42.85153764506644],[-96.54332804648045,42.920262420314195],[-96.50025651856518,42.95977916608165],[-96.52179228252282,42.977819419584186],[-96.4930779305793,43.0018730909209],[-96.511024400544,43.04998043359433],[-96.46077428464284,43.06372538864388],[-96.43564922669226,43.120423328223275],[-96.46795287262873,43.15049041739417],[-96.4751314606146,43.22179237171371],[-96.56127451644517,43.224369550785504],[-96.55050663446634,43.251000401194005],[-96.57922098640987,43.29567150510504],[-96.5289708705087,43.29996680355803],[-96.52538157651576,43.394463369523685],[-96.60434604436044,43.44944318972189],[-96.57922098640987,43.48122839827398],[-96.59716745637456,43.50012771146711],[-96.45359569665696,43.50012771146711]]]}},{"type":"Feature","id":"55","properties":{"name":"Wisconsin"},"geometry":{"type":"MultiPolygon","coordinates":[[[[-86.95632379133791,45.35226040439404],[-86.93478802738026,45.42098517964179],[-86.82351991359913,45.40638116490164],[-86.90607367543674,45.296421524505234],[-86.95632379133791,45.35226040439404]]],[[[-87.37627118851188,45.199347779467786],[-87.3331996605966,45.211374615136144],[-87.32602107261073,45.157253854628536],[-87.37627118851188,45.177012227512265],[-87.37627118851188,45.199347779467786]]],[[[-90.46665331643317,47.00251407003069],[-90.43793896448965,47.073816024350236],[-90.39486743657436,47.07725226311263],[-90.41281390653906,47.012822786317855],[-90.46665331643317,47.00251407003069]]],[[[-90.5240820203202,46.87623229551295],[-90.44870684646845,46.904581265302646],[-90.49895696236962,46.86420545984459],[-90.5240820203202,46.87623229551295]]],[[[-90.65329660406604,46.92519869787697],[-90.63535013410134,46.943238951379506],[-90.52767131431314,46.96815168240682],[-90.50972484434844,46.95698390642906],[-90.54920707827078,46.91574904128041],[-90.63535013410134,46.90629938468384],[-90.65329660406604,46.92519869787697]]],[[[-90.76097542385423,46.83929272881728],[-90.75020754187541,46.862487340463396],[-90.67842166201662,46.89770878777787],[-90.67483236802367,46.88138665365653],[-90.76097542385423,46.83929272881728]]],[[[-90.73943965989659,46.96385638395383],[-90.68918954399544,46.9174671606616],[-90.73585036590366,46.91488998158981],[-90.76456471784718,46.946675190141896],[-90.73943965989659,46.96385638395383]]],[[[-90.775332599826,47.023990562295616],[-90.6497073100731,47.054916711157105],[-90.61022507615075,47.00766842817428],[-90.5599749602496,47.03687645765457],[-90.55279637226371,46.9990778312683],[-90.61022507615075,46.99134629405293],[-90.67124307403074,46.94925236921368],[-90.71072530795307,46.985332876218756],[-90.76815401184011,47.00251407003069],[-90.775332599826,47.023990562295616]]],[[[-90.7932790697907,46.785171968309676],[-90.73226107191071,46.80063504274042],[-90.61740366413663,46.874514176131754],[-90.56715354823548,46.847024266032655],[-90.67483236802367,46.81867529624296],[-90.65688589805897,46.788608207072066],[-90.71790389593896,46.785171968309676],[-90.78968977579775,46.75338675975759],[-90.7932790697907,46.785171968309676]]],[[[-90.9835116514165,46.98619193590935],[-90.92967224152241,47.0007959506495],[-90.93326153551536,46.962997324263235],[-90.9835116514165,46.98619193590935]]],[[[-92.01363902739027,46.70613847677476],[-91.94185314753148,46.68036668605685],[-91.81981715177152,46.689816342653415],[-91.64394174611746,46.73448744656446],[-91.5757451602516,46.75768205821058],[-91.51113786837868,46.75768205821058],[-91.33885175671756,46.81781623655236],[-91.24911940689407,46.84101084819847],[-91.22758364293642,46.86334640015399],[-91.16656564505645,46.84444708696086],[-91.14144058710586,46.87279605675056],[-91.05170823728237,46.88138665365653],[-90.97274376943768,46.94152083199831],[-90.92249365353653,46.93121211571115],[-90.87224353763537,46.96127920488204],[-90.83635059770597,46.95784296611966],[-90.75020754187541,46.88825913118131],[-90.80045765777658,46.82297059469594],[-90.88660071360714,46.75596393882938],[-90.85429706767067,46.693252581415805],[-90.91172577155771,46.663185492244914],[-90.95120800548005,46.597037896068954],[-90.90454718357184,46.5832929410194],[-90.75379683586836,46.64600429843298],[-90.73585036590366,46.69239352172521],[-90.58510001820018,46.59961507514075],[-90.53843919629196,46.58071576194761],[-90.5061355503555,46.589306358853584],[-90.416403200532,46.566111747207465],[-90.39486743657436,46.53260841927418],[-90.35179590865908,46.53776277741777],[-90.35179590865908,46.53776277741777],[-90.31590296872969,46.51714534484344],[-90.2189920309203,46.50340038979389],[-90.11849179911799,46.35993742146421],[-90.12208109311092,46.33674280981809],[-89.09195371713717,46.138300021290206],[-88.78327443374434,46.016313545225444],[-88.74020290582905,46.027481321203204],[-88.67918490794908,46.01373636615365],[-88.66482773197731,45.988823635126344],[-88.61457761607616,45.988823635126344],[-88.60380973409734,46.016313545225444],[-88.50689879628796,46.01803166460664],[-88.49972020830208,45.996555172341715],[-88.42434503445034,45.97851491883918],[-88.38127350653507,45.99140081419814],[-88.2951304507045,45.95102500874008],[-88.24488033480334,45.96305184440843],[-88.10130857508575,45.92181697925979],[-88.10130857508575,45.88144117380173],[-88.07618351713516,45.8634009202992],[-88.13720151501515,45.81872981638816],[-88.07259422314223,45.7800721303113],[-87.99721904929049,45.79553520474204],[-87.96491540335403,45.75859563804637],[-87.87877234752347,45.75515939928398],[-87.85723658356584,45.726810429494286],[-87.81057576165762,45.711347355063545],[-87.7818614097141,45.67354872867728],[-87.82493293762937,45.66238095269952],[-87.77468282172822,45.59795147590475],[-87.80339717367173,45.538676357253564],[-87.79262929169292,45.49830055179551],[-87.81416505565055,45.46393816417164],[-87.86082587755877,45.43473013469134],[-87.85005799557995,45.40208586644866],[-87.87518305353053,45.38146843387433],[-87.85005799557995,45.34109262841628],[-87.85005799557995,45.34109262841628],[-87.75314705777058,45.349683225322245],[-87.69571835388354,45.3900590307803],[-87.65623611996119,45.368582538515376],[-87.64905753197532,45.33937450903508],[-87.68853976589766,45.29813964388643],[-87.74237917579175,45.19677060039599],[-87.73520058780588,45.17185786936869],[-87.68853976589766,45.14780419803197],[-87.65982541395414,45.107428392573915],[-87.59162882808828,45.095401556905564],[-87.62752176801767,45.045576094850944],[-87.63111106201062,44.97685131960319],[-87.7639149397494,44.96568354362543],[-87.83929011360114,44.93132115600155],[-87.82852223162232,44.8909453505435],[-87.86800446554466,44.84026082879828],[-87.90030811148111,44.82737493343933],[-87.93979034540345,44.756072979119786],[-87.98286187331873,44.71999247211471],[-88.00798693126931,44.63065026429263],[-87.99721904929049,44.60917377202771],[-88.04387987119871,44.56622078749787],[-87.9720939913399,44.530140280492795],[-87.92902246342463,44.53615369832698],[-87.90389740547405,44.58168386192861],[-87.81057576165762,44.636663682126816],[-87.77468282172822,44.6392408611986],[-87.72084341183411,44.69336162170621],[-87.72084341183411,44.7242877705677],[-87.60957529805297,44.838542709417084],[-87.51625365423654,44.86946885827857],[-87.4767714203142,44.8634554404444],[-87.43728918639187,44.89266346992469],[-87.38344977649776,44.86517355982559],[-87.4049855404554,44.90469030559305],[-87.36191401254013,44.988019095580945],[-87.26500307473074,45.08165660185601],[-87.23987801678017,45.1675625709157],[-87.19680648886488,45.16326727246272],[-87.12143131501314,45.19075718256182],[-87.11784202102021,45.241441704307036],[-87.05682402314022,45.29298528574285],[-86.97785955529555,45.29040810667106],[-86.98503814328143,45.21566991358913],[-87.04246684716847,45.211374615136144],[-87.04964543515435,45.08938813907138],[-87.09271696306963,45.05502575144751],[-87.12143131501314,45.05846199020989],[-87.13937778497785,45.01293182660826],[-87.189627900879,44.96826072269722],[-87.1716814309143,44.93132115600155],[-87.21834225282252,44.89781782806827],[-87.20398507685077,44.875482276112756],[-87.26859236872369,44.84713330632306],[-87.3152531906319,44.79387160550605],[-87.34396754257543,44.719133412424114],[-87.4049855404554,44.62721402553025],[-87.43728918639187,44.60487847357473],[-87.46959283232832,44.55161677275772],[-87.54496800618006,44.32138877567775],[-87.5126643602436,44.240637164761644],[-87.51984294822948,44.17964392672926],[-87.56291447614475,44.144422479414786],[-87.64546823798237,44.10490573364733],[-87.65623611996119,44.05164403283032],[-87.68495047190471,44.01985882427824],[-87.73520058780588,43.88069115440154],[-87.72802199982,43.81024825977259],[-87.69930764787648,43.767295275242745],[-87.70648623586236,43.67967118680186],[-87.7818614097141,43.578302143311426],[-87.80698646766467,43.46147002539025],[-87.87877234752347,43.36955063849638],[-87.91107599345993,43.23553732676326],[-87.88236164151641,43.170248790277896],[-87.90030811148111,43.13760452203521],[-87.87159375953759,43.06458444833448],[-87.89671881748818,43.015618045970456],[-87.84646870158701,42.962356345153445],[-87.84646870158701,42.889336271452706],[-87.82493293762937,42.835215510945105],[-87.76750423374233,42.78453098919989],[-87.7818614097141,42.70807467673676],[-87.82134364363644,42.616155289842894],[-87.7998078796788,42.49159163470634],[-88.09412998709986,42.495886933159326],[-88.63970267402674,42.49502787346873],[-88.78686372773727,42.49159163470634],[-89.48318676236762,42.501041291302904],[-89.66624075600755,42.50533658975589],[-90.48101049240492,42.50705470913709],[-90.64252872208722,42.508772828518275],[-90.64252872208722,42.54055803707036],[-90.70713601396014,42.63419554334543],[-90.76815401184011,42.65137673715736],[-90.93685082950829,42.68316194570945],[-91.05529753127531,42.73814176590765],[-91.10195835318353,42.88332285361853],[-91.14502988109881,42.904799345883454],[-91.14502988109881,42.96321540484404],[-91.17374423304233,43.03881265761657],[-91.17733352703527,43.131591104201036],[-91.14502988109881,43.15220853677536],[-91.12349411714116,43.1968796406864],[-91.05888682526825,43.24842322212221],[-91.10554764717646,43.31371175860758],[-91.20245858498585,43.34893320592205],[-91.1988692909929,43.412503623026225],[-91.2347622309223,43.455456607556066],[-91.2168157609576,43.50012771146711],[-91.24553011290112,43.54565787506874],[-91.23117293692937,43.58345650145501],[-91.26706587685877,43.61524171000709],[-91.27424446484464,43.67623494803947],[-91.24553011290112,43.77330869307692],[-91.27783375883759,43.83773816987169],[-91.38551257862578,43.95457028779287],[-91.43935198851987,44.0018185707757],[-91.57933445424455,44.02673130180301],[-91.70854903799038,44.10404667395673],[-91.7193169199692,44.128959404984045],[-91.81622785777857,44.164180852298514],[-91.87724585565856,44.202838538375374],[-91.89519232562326,44.274999552385516],[-91.92390667756678,44.28788544774447],[-91.92390667756678,44.333415611346105],[-91.97415679346793,44.367777998969984],[-92.05312126131261,44.40128132690326],[-92.23258596095961,44.445093371123704],[-92.28283607686076,44.47773763936639],[-92.31872901679016,44.544744295232945],[-92.36180054470545,44.55934830997309],[-92.54126524435245,44.56707984718847],[-92.5735688902889,44.60487847357473],[-92.62381900619006,44.61862342862428],[-92.62022971219712,44.6392408611986],[-92.73149782597825,44.713979054280536],[-92.7889265298653,44.737173665926655],[-92.80687299982999,44.768099814788144],[-92.76380147191472,44.836824590035896],[-92.77456935389354,44.90125406683066],[-92.74944429594295,44.937334573835734],[-92.7709800599006,44.972556021150204],[-92.76380147191472,45.028394901039],[-92.80328370583706,45.057602930519295],[-92.74585500195002,45.107428392573915],[-92.76739076590765,45.18560282441824],[-92.7530335899359,45.21309273451734],[-92.76021217792177,45.291267166361656],[-92.6991941800418,45.333361091200906],[-92.70278347403473,45.35827382222821],[-92.64894406414064,45.39864962768627],[-92.64535477014769,45.441602612216116],[-92.72790853198532,45.514622685916855],[-92.72431923799238,45.54125353632536],[-92.77456935389354,45.568743446424456],[-92.81046229382294,45.561011909209086],[-92.88583746767468,45.57905216271162],[-92.88942676166761,45.62458232631325],[-92.86430170371703,45.722515131041305],[-92.78533723587235,45.76460905588055],[-92.71355135601355,45.891749890088896],[-92.64176547615476,45.93212569554695],[-92.55203312633125,45.95188406843068],[-92.52331877438775,45.98452833667336],[-92.47306865848658,45.973360560695596],[-92.43717571855719,46.02146790336903],[-92.35103266272662,46.015454485534846],[-92.32949689876898,46.066139007280064],[-92.29360395883958,46.07472960418603],[-92.29360395883958,46.663185492244914],[-92.21463949099491,46.64944053719537],[-92.17515725707257,46.68638010389103],[-92.20746090300902,46.70270223801237],[-92.15003219912198,46.71472907368073],[-92.13926431714317,46.739641804708036],[-92.08901420124201,46.74909146130461],[-92.01363902739027,46.70613847677476]]]]}}]}